SL-14 R/B               
1 21423U 91042B   25357.92441634  .00000446  00000+0  53447-4 0  9993
2 21423  82.4936 291.2354 0018293 126.7654 233.5242 14.81748557841853
ERS-1                   
1 21574U 91050A   25357.92877700  .00000300  00000+0  11062-3 0  9991
2 21574  98.7901   9.2632 0032945  67.8724 292.5954 14.39372909804830
ARIANE 40 R/B           
1 21610U 91050F   25357.05018132  .00000315  00000+0  10691-3 0  9995
2 21610  98.2150  47.1081 0002185 323.4126  36.6915 14.42821291807947
INTERCOSMOS 25          
1 21819U 91086A   25357.94621029  .00002067  00000+0  41159-3 0  9997
2 21819  82.6078 355.7964 1486345 280.2317  63.4944 12.11771359487519
SL-8 R/B                
1 21876U 92008B   25357.94908097  .00000122  00000+0  10942-3 0  9994
2 21876  82.9272 324.1084 0034475 348.6539  65.1809 13.75961440699002
SL-8 R/B                
1 21938U 92020B   25357.88744841  .00000139  00000+0  12769-3 0  9992
2 21938  82.9294 210.0394 0029609 147.3229 223.9551 13.75529946690713
USA 81                  
1 21949U 92023A   25357.93213412  .00000191  00000+0  63290-4 0  9992
2 21949  85.0078 175.1209 0001094  85.2960 274.8357 14.32330847 83949
COSMOS 2219             
1 22219U 92076A   25357.90143581  .00000303  00000+0  18349-3 0  9996
2 22219  71.0578 176.4993 0019303 311.6192  48.3276 14.14066843707667
SL-16 R/B               
1 22220U 92076B   25357.75273630  .00000128  00000+0  87909-4 0  9994
2 22220  71.0009 348.3327 0014232 219.3764 313.2349 14.16845007711078
COSMOS 2221             
1 22236U 92080A   25357.72197945  .00001884  00000+0  16616-3 0  9993
2 22236  82.5038 351.8127 0016296  88.1566 272.1522 14.95800853769431
SL-16 R/B               
1 22285U 92093B   25357.91009283 -.00000026  00000+0  11143-4 0  9998
2 22285  71.0207 163.3470 0002492  35.2791 324.8497 14.15435319702435
COSMOS 2228             
1 22286U 92094A   25357.92162470  .00002189  00000+0  18856-3 0  9997
2 22286  82.5191 309.8349 0017436 191.4564 168.6264 14.96778352764726
