CCSDS_OMM_VERS = 2.0
CREATION_DATE  = 
ORIGINATOR     = 

OBJECT_NAME    = SL-14 R/B
OBJECT_ID      = 1991-042B
CENTER_NAME    = EARTH
REF_FRAME      = TEME
TIME_SYSTEM    = UTC
MEAN_ELEMENT_THEORY = SGP/SGP4

EPOCH          = 2025-12-23T22:11:09.571776
MEAN_MOTION    = 14.81748557
ECCENTRICITY   = .0018293
INCLINATION    = 82.4936
RA_OF_ASC_NODE = 291.2354
ARG_OF_PERICENTER = 126.7654
MEAN_ANOMALY   = 233.5242

EPHEMERIS_TYPE = 0
CLASSIFICATION_TYPE = U
NORAD_CAT_ID   = 21423
ELEMENT_SET_NO = 999
REV_AT_EPOCH   = 84185
BSTAR          = .5344668E-4
MEAN_MOTION_DOT = .446E-5
MEAN_MOTION_DDOT = 0

CCSDS_OMM_VERS = 2.0
CREATION_DATE  = 
ORIGINATOR     = 

OBJECT_NAME    = ERS-1
OBJECT_ID      = 1991-050A
CENTER_NAME    = EARTH
REF_FRAME      = TEME
TIME_SYSTEM    = UTC
MEAN_ELEMENT_THEORY = SGP/SGP4

EPOCH          = 2025-12-23T22:17:26.332800
MEAN_MOTION    = 14.39372909
ECCENTRICITY   = .00329452
INCLINATION    = 98.7901
RA_OF_ASC_NODE = 9.2632
ARG_OF_PERICENTER = 67.8724
MEAN_ANOMALY   = 292.5954

EPHEMERIS_TYPE = 0
CLASSIFICATION_TYPE = U
NORAD_CAT_ID   = 21574
ELEMENT_SET_NO = 999
REV_AT_EPOCH   = 80483
BSTAR          = .11062188E-3
MEAN_MOTION_DOT = .3E-5
MEAN_MOTION_DDOT = 0

CCSDS_OMM_VERS = 2.0
CREATION_DATE  = 
ORIGINATOR     = 

OBJECT_NAME    = ARIANE 40 R/B
OBJECT_ID      = 1991-050F
CENTER_NAME    = EARTH
REF_FRAME      = TEME
TIME_SYSTEM    = UTC
MEAN_ELEMENT_THEORY = SGP/SGP4

EPOCH          = 2025-12-23T01:12:15.666048
MEAN_MOTION    = 14.42821291
ECCENTRICITY   = .0002185
INCLINATION    = 98.2150
RA_OF_ASC_NODE = 47.1081
ARG_OF_PERICENTER = 323.4126
MEAN_ANOMALY   = 36.6915

EPHEMERIS_TYPE = 0
CLASSIFICATION_TYPE = U
NORAD_CAT_ID   = 21610
ELEMENT_SET_NO = 999
REV_AT_EPOCH   = 80794
BSTAR          = .10690839E-3
MEAN_MOTION_DOT = .315E-5
MEAN_MOTION_DDOT = 0

CCSDS_OMM_VERS = 2.0
CREATION_DATE  = 
ORIGINATOR     = 

OBJECT_NAME    = INTERCOSMOS 25
OBJECT_ID      = 1991-086A
CENTER_NAME    = EARTH
REF_FRAME      = TEME
TIME_SYSTEM    = UTC
MEAN_ELEMENT_THEORY = SGP/SGP4

EPOCH          = 2025-12-23T22:42:32.569056
MEAN_MOTION    = 12.11771359
ECCENTRICITY   = .14863453
INCLINATION    = 82.6078
RA_OF_ASC_NODE = 355.7964
ARG_OF_PERICENTER = 280.2317
MEAN_ANOMALY   = 63.4944

EPHEMERIS_TYPE = 0
CLASSIFICATION_TYPE = U
NORAD_CAT_ID   = 21819
ELEMENT_SET_NO = 999
REV_AT_EPOCH   = 48751
BSTAR          = .4115856E-3
MEAN_MOTION_DOT = .2067E-4
MEAN_MOTION_DDOT = 0

CCSDS_OMM_VERS = 2.0
CREATION_DATE  = 
ORIGINATOR     = 

OBJECT_NAME    = SL-8 R/B
OBJECT_ID      = 1992-008B
CENTER_NAME    = EARTH
REF_FRAME      = TEME
TIME_SYSTEM    = UTC
MEAN_ELEMENT_THEORY = SGP/SGP4

EPOCH          = 2025-12-23T22:46:40.595808
MEAN_MOTION    = 13.75961440
ECCENTRICITY   = .00344752
INCLINATION    = 82.9272
RA_OF_ASC_NODE = 324.1084
ARG_OF_PERICENTER = 348.6539
MEAN_ANOMALY   = 65.1809

EPHEMERIS_TYPE = 0
CLASSIFICATION_TYPE = U
NORAD_CAT_ID   = 21876
ELEMENT_SET_NO = 999
REV_AT_EPOCH   = 69900
BSTAR          = .10941589E-3
MEAN_MOTION_DOT = .122E-5
MEAN_MOTION_DDOT = 0

CCSDS_OMM_VERS = 2.0
CREATION_DATE  = 
ORIGINATOR     = 

OBJECT_NAME    = SL-8 R/B
OBJECT_ID      = 1992-020B
CENTER_NAME    = EARTH
REF_FRAME      = TEME
TIME_SYSTEM    = UTC
MEAN_ELEMENT_THEORY = SGP/SGP4

EPOCH          = 2025-12-23T21:17:55.542624
MEAN_MOTION    = 13.75529946
ECCENTRICITY   = .00296099
INCLINATION    = 82.9294
RA_OF_ASC_NODE = 210.0394
ARG_OF_PERICENTER = 147.3229
MEAN_ANOMALY   = 223.9551

EPHEMERIS_TYPE = 0
CLASSIFICATION_TYPE = U
NORAD_CAT_ID   = 21938
ELEMENT_SET_NO = 999
REV_AT_EPOCH   = 69071
BSTAR          = .12769269E-3
MEAN_MOTION_DOT = .139E-5
MEAN_MOTION_DDOT = 0

CCSDS_OMM_VERS = 2.0
CREATION_DATE  = 
ORIGINATOR     = 

OBJECT_NAME    = USA 81
OBJECT_ID      = 1992-023A
CENTER_NAME    = EARTH
REF_FRAME      = TEME
TIME_SYSTEM    = UTC
MEAN_ELEMENT_THEORY = SGP/SGP4

EPOCH          = 2025-12-23T22:22:16.387968
MEAN_MOTION    = 14.32330847
ECCENTRICITY   = .00010947
INCLINATION    = 85.0078
RA_OF_ASC_NODE = 175.1209
ARG_OF_PERICENTER = 85.2960
MEAN_ANOMALY   = 274.8357

EPHEMERIS_TYPE = 0
CLASSIFICATION_TYPE = U
NORAD_CAT_ID   = 21949
ELEMENT_SET_NO = 999
REV_AT_EPOCH   = 8394
BSTAR          = .63289995E-4
MEAN_MOTION_DOT = .191E-5
MEAN_MOTION_DDOT = 0

CCSDS_OMM_VERS = 2.0
CREATION_DATE  = 
ORIGINATOR     = 

OBJECT_NAME    = COSMOS 2219
OBJECT_ID      = 1992-076A
CENTER_NAME    = EARTH
REF_FRAME      = TEME
TIME_SYSTEM    = UTC
MEAN_ELEMENT_THEORY = SGP/SGP4

EPOCH          = 2025-12-23T21:38:04.053984
MEAN_MOTION    = 14.14066843
ECCENTRICITY   = .00193034
INCLINATION    = 71.0578
RA_OF_ASC_NODE = 176.4993
ARG_OF_PERICENTER = 311.6192
MEAN_ANOMALY   = 48.3276

EPHEMERIS_TYPE = 0
CLASSIFICATION_TYPE = U
NORAD_CAT_ID   = 22219
ELEMENT_SET_NO = 999
REV_AT_EPOCH   = 70766
BSTAR          = .18349247E-3
MEAN_MOTION_DOT = .303E-5
MEAN_MOTION_DDOT = 0

CCSDS_OMM_VERS = 2.0
CREATION_DATE  = 
ORIGINATOR     = 

OBJECT_NAME    = SL-16 R/B
OBJECT_ID      = 1992-076B
CENTER_NAME    = EARTH
REF_FRAME      = TEME
TIME_SYSTEM    = UTC
MEAN_ELEMENT_THEORY = SGP/SGP4

EPOCH          = 2025-12-23T18:03:56.416320
MEAN_MOTION    = 14.16845007
ECCENTRICITY   = .0014232
INCLINATION    = 71.0009
RA_OF_ASC_NODE = 348.3327
ARG_OF_PERICENTER = 219.3764
MEAN_ANOMALY   = 313.2349

EPHEMERIS_TYPE = 0
CLASSIFICATION_TYPE = U
NORAD_CAT_ID   = 22220
ELEMENT_SET_NO = 999
REV_AT_EPOCH   = 71107
BSTAR          = .87909272E-4
MEAN_MOTION_DOT = .128E-5
MEAN_MOTION_DDOT = 0

CCSDS_OMM_VERS = 2.0
CREATION_DATE  = 
ORIGINATOR     = 

OBJECT_NAME    = COSMOS 2221
OBJECT_ID      = 1992-080A
CENTER_NAME    = EARTH
REF_FRAME      = TEME
TIME_SYSTEM    = UTC
MEAN_ELEMENT_THEORY = SGP/SGP4

EPOCH          = 2025-12-23T17:19:39.024480
MEAN_MOTION    = 14.95800853
ECCENTRICITY   = .0016296
INCLINATION    = 82.5038
RA_OF_ASC_NODE = 351.8127
ARG_OF_PERICENTER = 88.1566
MEAN_ANOMALY   = 272.1522

EPHEMERIS_TYPE = 0
CLASSIFICATION_TYPE = U
NORAD_CAT_ID   = 22236
ELEMENT_SET_NO = 999
REV_AT_EPOCH   = 76943
BSTAR          = .16615971E-3
MEAN_MOTION_DOT = .1884E-4
MEAN_MOTION_DDOT = 0

CCSDS_OMM_VERS = 2.0
CREATION_DATE  = 
ORIGINATOR     = 

OBJECT_NAME    = SL-16 R/B
OBJECT_ID      = 1992-093B
CENTER_NAME    = EARTH
REF_FRAME      = TEME
TIME_SYSTEM    = UTC
MEAN_ELEMENT_THEORY = SGP/SGP4

EPOCH          = 2025-12-23T21:50:32.020512
MEAN_MOTION    = 14.15435319
ECCENTRICITY   = .00024922
INCLINATION    = 71.0207
RA_OF_ASC_NODE = 163.3470
ARG_OF_PERICENTER = 35.2791
MEAN_ANOMALY   = 324.8497

EPHEMERIS_TYPE = 0
CLASSIFICATION_TYPE = U
NORAD_CAT_ID   = 22285
ELEMENT_SET_NO = 999
REV_AT_EPOCH   = 70243
BSTAR          = .11142969E-4
MEAN_MOTION_DOT = -.26E-6
MEAN_MOTION_DDOT = 0

CCSDS_OMM_VERS = 2.0
CREATION_DATE  = 
ORIGINATOR     = 

OBJECT_NAME    = COSMOS 2228
OBJECT_ID      = 1992-094A
CENTER_NAME    = EARTH
REF_FRAME      = TEME
TIME_SYSTEM    = UTC
MEAN_ELEMENT_THEORY = SGP/SGP4

EPOCH          = 2025-12-23T22:07:08.374080
MEAN_MOTION    = 14.96778352
ECCENTRICITY   = .00174364
INCLINATION    = 82.5191
RA_OF_ASC_NODE = 309.8349
ARG_OF_PERICENTER = 191.4564
MEAN_ANOMALY   = 168.6264

EPHEMERIS_TYPE = 0
CLASSIFICATION_TYPE = U
NORAD_CAT_ID   = 22286
ELEMENT_SET_NO = 999
REV_AT_EPOCH   = 76472
BSTAR          = .18856085E-3
MEAN_MOTION_DOT = .2189E-4
MEAN_MOTION_DDOT = 0

